CCSDS_OMM_VERS = 2.0
CREATION_DATE  = 
ORIGINATOR     = 

OBJECT_NAME    = XRISM
OBJECT_ID      = 2023-137A
CENTER_NAME    = EARTH
REF_FRAME      = TEME
TIME_SYSTEM    = UTC
MEAN_ELEMENT_THEORY = SGP/SGP4

EPOCH          = 2026-03-26T14:39:56.372832
MEAN_MOTION    = 15.11688606
ECCENTRICITY   = .00079383
INCLINATION    = 31.0013
RA_OF_ASC_NODE = 174.1979
ARG_OF_PERICENTER = 209.6422
MEAN_ANOMALY   = 150.3768

EPHEMERIS_TYPE = 0
CLASSIFICATION_TYPE = U
NORAD_CAT_ID   = 57800
ELEMENT_SET_NO = 999
REV_AT_EPOCH   = 14035
BSTAR          = .3234108E-3
MEAN_MOTION_DOT = .5744E-4
MEAN_MOTION_DDOT = 0

CCSDS_OMM_VERS = 2.0
CREATION_DATE  = 
ORIGINATOR     = 

OBJECT_NAME    = ACS3
OBJECT_ID      = 2024-077B
CENTER_NAME    = EARTH
REF_FRAME      = TEME
TIME_SYSTEM    = UTC
MEAN_ELEMENT_THEORY = SGP/SGP4

EPOCH          = 2026-03-26T18:34:42.526848
MEAN_MOTION    = 13.90365672
ECCENTRICITY   = .00716063
INCLINATION    = 97.1977
RA_OF_ASC_NODE = 23.0463
ARG_OF_PERICENTER = 37.1168
MEAN_ANOMALY   = 323.4918

EPHEMERIS_TYPE = 0
CLASSIFICATION_TYPE = U
NORAD_CAT_ID   = 59588
ELEMENT_SET_NO = 999
REV_AT_EPOCH   = 9657
BSTAR          = .13906226E-1
MEAN_MOTION_DOT = .17622E-3
MEAN_MOTION_DDOT = 0

CCSDS_OMM_VERS = 2.0
CREATION_DATE  = 
ORIGINATOR     = 

OBJECT_NAME    = SZ-21 MODULE
OBJECT_ID      = 2025-246C
CENTER_NAME    = EARTH
REF_FRAME      = TEME
TIME_SYSTEM    = UTC
MEAN_ELEMENT_THEORY = SGP/SGP4

EPOCH          = 2026-03-27T01:34:46.588800
MEAN_MOTION    = 15.69868373
ECCENTRICITY   = .0001339
INCLINATION    = 41.4743
RA_OF_ASC_NODE = 96.2882
ARG_OF_PERICENTER = 209.1710
MEAN_ANOMALY   = 150.9058

EPHEMERIS_TYPE = 0
CLASSIFICATION_TYPE = U
NORAD_CAT_ID   = 66515
ELEMENT_SET_NO = 999
REV_AT_EPOCH   = 2080
BSTAR          = .33003E-3
MEAN_MOTION_DOT = .4053E-3
MEAN_MOTION_DDOT = 0

