XRISM                   
1 57800U 23137A   26085.61106913  .00005744  00000+0  32341-3 0  9999
2 57800  31.0013 174.1979 0007938 209.6422 150.3768 15.11688606140355
ACS3                    
1 59588U 24077B   26085.77410332  .00017622  00000+0  13906-1 0  9990
2 59588  97.1977  23.0463 0071606  37.1168 323.4918 13.90365672 96570
SZ-21 MODULE            
1 66515U 25246C   26086.06581700  .00040530  00000+0  33003-3 0  9994
2 66515  41.4743  96.2882 0001339 209.1710 150.9058 15.69868373 20803
